{
  "type": "FeatureCollection",
  "description": "CPH airport night-lighting reference points and paths. Hand-drawn by Lucas via geojson.io on 2026-08-06. Isolated point pairs at opposite ends of the airfield are runway endpoints that should be connected into centerline light strings. LineStrings trace taxiway and ramp lighting paths verbatim. Point clusters (multiple near-identical coords) are single spot lights.",
  "features": [
    { "type": "Feature", "properties": {}, "geometry": { "type": "Point", "coordinates": [12.6559675, 55.6179082] } },
    { "type": "Feature", "properties": {}, "geometry": { "type": "Point", "coordinates": [12.6559682, 55.6179087] } },
    { "type": "Feature", "properties": {}, "geometry": { "type": "Point", "coordinates": [12.6559684, 55.617908] } },
    { "type": "Feature", "properties": {}, "geometry": { "type": "Point", "coordinates": [12.655969, 55.6179084] } },
    { "type": "Feature", "properties": {}, "geometry": { "type": "Point", "coordinates": [12.6704805, 55.6124871] } },
    { "type": "Feature", "properties": {}, "geometry": { "type": "Point", "coordinates": [12.6705553, 55.6125585] } },
    { "type": "Feature", "properties": {}, "geometry": { "type": "Point", "coordinates": [12.6329867, 55.6031265] } },
    { "type": "Feature", "properties": {}, "geometry": { "type": "Point", "coordinates": [12.6330856, 55.6030771] } },
    { "type": "Feature", "properties": {}, "geometry": { "type": "Point", "coordinates": [12.6407409, 55.6161759] } },
    { "type": "Feature", "properties": {}, "geometry": { "type": "Point", "coordinates": [12.6405879, 55.6162474] } },
    { "type": "Feature", "properties": {}, "geometry": { "type": "Point", "coordinates": [12.6035961, 55.5921794] } },
    { "type": "Feature", "properties": {}, "geometry": { "type": "Point", "coordinates": [12.6034798, 55.5922418] } },
    { "type": "Feature", "properties": {}, "geometry": { "type": "Point", "coordinates": [12.63012, 55.6275662] } },
    { "type": "Feature", "properties": {}, "geometry": { "type": "Point", "coordinates": [12.6300669, 55.6273988] } },
    { "type": "Feature", "properties": {}, "geometry": { "type": "Point", "coordinates": [12.6298678, 55.6274762] } },
    { "type": "Feature", "properties": {}, "geometry": { "type": "Point", "coordinates": [12.6675298, 55.6254912] } },
    { "type": "Feature", "properties": {}, "geometry": { "type": "Point", "coordinates": [12.6677085, 55.6253922] } },
    { "type": "Feature", "properties": {}, "geometry": { "type": "Point", "coordinates": [12.650483, 55.614564] } },
    { "type": "Feature", "properties": {}, "geometry": { "type": "Point", "coordinates": [12.650317, 55.6145499] } },
    { "type": "Feature", "properties": {}, "geometry": { "type": "Point", "coordinates": [12.6504, 55.6155066] } },
    { "type": "Feature", "properties": {}, "geometry": { "type": "Point", "coordinates": [12.6498022, 55.6162052] } },
    { "type": "Feature", "properties": {}, "geometry": { "type": "Point", "coordinates": [12.6494036, 55.6164538] } },
    { "type": "Feature", "properties": {}, "geometry": { "type": "Point", "coordinates": [12.6505827, 55.6148266] } },
    { "type": "Feature", "properties": {}, "geometry": { "type": "Point", "coordinates": [12.6529978, 55.6161635] } },
    { "type": "Feature", "properties": {}, "geometry": { "type": "Point", "coordinates": [12.6532138, 55.6163106] } },
    { "type": "Feature", "properties": {}, "geometry": { "type": "Point", "coordinates": [12.6494334, 55.6165192] } },
    { "type": "Feature", "properties": {}, "geometry": { "type": "Point", "coordinates": [12.648001, 55.6175642] } },
    { "type": "Feature", "properties": {}, "geometry": { "type": "Point", "coordinates": [12.6478991, 55.6175613] } },
    { "type": "Feature", "properties": {}, "geometry": { "type": "LineString", "coordinates": [[12.6479709,55.617567],[12.6482253,55.617266],[12.6485566,55.616981],[12.649439,55.6165163]] } },
    { "type": "Feature", "properties": {}, "geometry": { "type": "Point", "coordinates": [12.6479449, 55.618708] } },
    { "type": "Feature", "properties": {}, "geometry": { "type": "LineString", "coordinates": [[12.6478688,55.6176007],[12.6477771,55.6179252],[12.6477619,55.6182402],[12.6479343,55.6186727]] } },
    { "type": "Feature", "properties": {}, "geometry": { "type": "LineString", "coordinates": [[12.6481575,55.6188675],[12.6479749,55.6185528],[12.6478779,55.6182235],[12.6478887,55.6178998],[12.6479343,55.6177423],[12.6480307,55.6175815]] } },
    { "type": "Feature", "properties": {}, "geometry": { "type": "LineString", "coordinates": [[12.6481524,55.6188736],[12.6499327,55.6181117],[12.6499936,55.6178683],[12.6508761,55.6174329],[12.6494712,55.6165335]] } },
    { "type": "Feature", "properties": {}, "geometry": { "type": "LineString", "coordinates": [[12.6481697,55.6188839],[12.648898,55.6195255],[12.6522429,55.6182866],[12.6509153,55.6174525],[12.6500511,55.6178825],[12.650012,55.6181129],[12.6492087,55.6185207],[12.6481995,55.6188859]] } },
    { "type": "Feature", "properties": {}, "geometry": { "type": "LineString", "coordinates": [[12.6494773,55.6164867],[12.6522763,55.6182704],[12.6539852,55.6176397],[12.6547967,55.6172624],[12.6533995,55.6163673],[12.6526894,55.616148],[12.6518936,55.616043],[12.65134,55.6160345],[12.6508198,55.6160884],[12.6501098,55.6162385],[12.6495117,55.6164775]] } },
    { "type": "Feature", "properties": {}, "geometry": { "type": "LineString", "coordinates": [[12.6531949,55.616242],[12.6529255,55.6161452],[12.652261,55.6160089],[12.6512291,55.6159812],[12.6505122,55.6160792],[12.6499875,55.6162195],[12.6498336,55.6162767],[12.6502289,55.6159726],[12.6504269,55.6157066],[12.6505029,55.6155747],[12.6505545,55.6154367]] } },
    { "type": "Feature", "properties": {}, "geometry": { "type": "LineString", "coordinates": [[12.6505449,55.615428],[12.650601,55.6150801],[12.6505209,55.6147233]] } },
    { "type": "Feature", "properties": {}, "geometry": { "type": "LineString", "coordinates": [[12.6484059,55.613281],[12.6472246,55.6128],[12.647126,55.6127819],[12.6470141,55.6131521],[12.6468374,55.6136676],[12.6467912,55.6138069],[12.6473327,55.6138757],[12.6477723,55.6139796],[12.648136,55.6141093],[12.6486555,55.6144173],[12.6493314,55.6148556],[12.649509,55.615015],[12.6495469,55.6151549],[12.6495349,55.6152757],[12.6494091,55.615445],[12.6493551,55.6155289],[12.6491193,55.6157862],[12.6489294,55.6159893],[12.6489394,55.6161281],[12.6491512,55.6162782],[12.64943,55.6164541],[12.6495478,55.6164034],[12.6496617,55.616339],[12.649847,55.6162102],[12.6501547,55.615954],[12.6503996,55.6156292],[12.6504635,55.6154893],[12.6505135,55.6153425],[12.6505378,55.6151559],[12.6505262,55.6149692],[12.6504978,55.6148174],[12.6504389,55.6146708],[12.6503818,55.6145407],[12.6503003,55.6144209]] } }
  ]
}
